OBJECT_NAME,OBJECT_ID,EPOCH,MEAN_MOTION,ECCENTRICITY,INCLINATION,RA_OF_ASC_NODE,ARG_OF_PERICENTER,MEAN_ANOMALY,EPHEMERIS_TYPE,CLASSIFICATION_TYPE,NORAD_CAT_ID,ELEMENT_SET_NO,REV_AT_EPOCH,BSTAR,MEAN_MOTION_DOT,MEAN_MOTION_DDOT
2026-134G,2026-134G,2026-06-20T04:05:50.413632,15.09627220,.00143377,97.7042,241.2889,267.1814,92.7774,0,U,69544,999,75,.22661028E-3,.3586E-4,0
2026-134H,2026-134H,2026-06-20T04:05:31.756416,15.09692698,.0014224,97.7028,241.2886,268.6104,91.3496,0,U,69545,999,74,.22603491E-3,.3583E-4,0
SHIJIAN-31 (SJ-31),2026-136A,2026-06-16T20:21:12.015072,2.28095748,.7310406,63.4649,356.1810,171.7246,356.2040,0,U,69570,999,5,.28088E-3,.6163E-4,.24751E-6
GUOWANG OBJECT A,2026-137A,2026-06-20T05:54:11.833920,13.91751858,.00124126,50.0012,243.2156,236.5479,123.4234,0,U,69572,999,44,.30102864E-4,-.108E-5,0
GUOWANG OBJECT B,2026-137B,2026-06-20T05:53:57.058656,13.91827881,.00120929,50.0010,243.2139,234.9285,125.0481,0,U,69573,999,45,.13930526E-4,-.129E-5,0
GUOWANG OBJECT C,2026-137C,2026-06-20T04:10:14.508192,13.91925273,.00117248,49.9974,243.4914,235.3353,124.6441,0,U,69574,999,44,.13241309E-4,-.13E-5,0
GUOWANG OBJECT D,2026-137D,2026-06-20T05:53:27.707712,13.91994805,.0011256,49.9974,243.2027,234.5686,125.4163,0,U,69575,999,45,.27782E-4,-.111E-5,0
GUOWANG OBJECT E,2026-137E,2026-06-19T17:49:43.269888,13.92013212,.0011031,50.0029,245.2235,235.6992,124.2864,0,U,69576,999,38,.4858E-4,-.84E-6,0
GUOWANG OBJECT F,2026-137F,2026-06-20T05:52:58.519200,13.92129912,.0010521,50.0021,243.2140,238.9254,121.0613,0,U,69577,999,45,.14165E-4,-.129E-5,0
GUOWANG OBJECT G,2026-137G,2026-06-20T05:52:51.439584,13.92174565,.00104266,49.9963,243.2013,238.5926,121.3954,0,U,69578,999,45,.14178322E-4,-.129E-5,0
GUOWANG OBJECT H,2026-137H,2026-06-19T17:49:07.972896,13.92227018,.00101,50.0006,245.2157,240.0569,119.9328,0,U,69579,999,38,.31439E-4,-.106E-5,0
GUOWANG OBJECT J,2026-137J,2026-06-19T17:48:44.898912,13.92365581,.0009514,49.9986,245.2101,236.3544,123.6448,0,U,69580,999,38,.33282E-4,-.104E-5,0
CENTISPACE-1 GROUP 05 OBJECT A,2026-138A,2026-06-20T07:39:31.656960,14.15491215,.0009938,55.1435,269.5905,284.4684,75.5188,0,U,69582,999,46,-.35394293E-4,-.223E-5,0
CENTISPACE-1 GROUP 05 OBJECT B,2026-138B,2026-06-18T11:35:25.266912,14.15750919,.0009095,55.1443,276.3679,279.3206,80.6740,0,U,69583,999,20,.2203E-4,-.11E-5,0
CENTISPACE-1 GROUP 05 OBJECT C,2026-138C,2026-06-18T11:35:19.171392,14.15830371,.0008531,55.1452,276.3744,279.2700,80.7310,0,U,69584,999,20,.23745E-4,-.107E-5,0
CENTISPACE-1 GROUP 05 OBJECT D,2026-138D,2026-06-19T11:18:25.243200,14.15929535,.00082805,55.1437,272.7109,282.4408,77.5640,0,U,69585,999,34,.88500785E-4,.22E-6,0
CENTISPACE-1 GROUP 05 OBJECT E,2026-138E,2026-06-19T02:49:59.883744,14.15995160,.00079697,55.1434,274.0220,282.0805,77.9276,0,U,69586,999,29,.13903389E-3,.122E-5,0
CENTISPACE-1 GROUP 05 OBJECT F,2026-138F,2026-06-18T09:53:26.572704,14.16000241,.0008297,55.1465,276.6321,285.7708,74.2351,0,U,69587,999,19,.28096E-4,-.98E-6,0
CENTISPACE-1 GROUP 05 OBJECT G,2026-138G,2026-06-18T11:34:52.663872,14.16170753,.000705,55.1448,276.3650,279.9943,80.0236,0,U,69588,999,20,.29348E-4,-.95E-6,0
SPACEMOBILE-008,2026-139A,2026-06-20T05:54:51.975360,15.12496761,.00035476,52.9945,248.6814,330.7256,29.3535,0,U,69589,999,45,.18128922E-4,.19E-6,0
SPACEMOBILE-009,2026-139B,2026-06-20T05:54:23.740704,15.12665426,.00036636,52.9926,248.6776,342.5170,17.5694,0,U,69590,999,44,.14096516E-4,-.51E-6,0
SPACEMOBILE-010,2026-139C,2026-06-20T05:54:06.130656,15.12771938,.00034881,52.9948,248.6791,349.3560,10.7357,0,U,69591,999,44,.19487182E-4,.45E-6,0
