2026-134G               
1 69544U 26134G   26171.17072238  .00003586  00000+0  22661-3 0  9992
2 69544  97.7042 241.2889 0014337 267.1814  92.7774 15.09627220   752
2026-134H               
1 69545U 26134H   26171.17050644  .00003583  00000+0  22603-3 0  9993
2 69545  97.7028 241.2886 0014224 268.6104  91.3496 15.09692698   743
SHIJIAN-31 (SJ-31)      
1 69570U 26136A   26167.84805573  .00006163  24751-6  28088-3 0  9997
2 69570  63.4649 356.1810 7310406 171.7246 356.2040  2.28095748    54
GUOWANG OBJECT A        
1 69572U 26137A   26171.24597030 -.00000108  00000+0  30103-4 0  9995
2 69572  50.0012 243.2156 0012412 236.5479 123.4234 13.91751858   443
GUOWANG OBJECT B        
1 69573U 26137B   26171.24579929 -.00000129  00000+0  13931-4 0  9996
2 69573  50.0010 243.2139 0012092 234.9285 125.0481 13.91827881   457
GUOWANG OBJECT C        
1 69574U 26137C   26171.17377903 -.00000130  00000+0  13241-4 0  9993
2 69574  49.9974 243.4914 0011724 235.3353 124.6441 13.91925273   443
GUOWANG OBJECT D        
1 69575U 26137D   26171.24545958 -.00000111  00000+0  27782-4 0  9993
2 69575  49.9974 243.2027 0011256 234.5686 125.4163 13.91994805   455
GUOWANG OBJECT E        
1 69576U 26137E   26170.74286192 -.00000084  00000+0  48580-4 0  9998
2 69576  50.0029 245.2235 0011031 235.6992 124.2864 13.92013212   388
GUOWANG OBJECT F        
1 69577U 26137F   26171.24512175 -.00000129  00000+0  14165-4 0  9990
2 69577  50.0021 243.2140 0010521 238.9254 121.0613 13.92129912   454
GUOWANG OBJECT G        
1 69578U 26137G   26171.24503981 -.00000129  00000+0  14178-4 0  9990
2 69578  49.9963 243.2013 0010426 238.5926 121.3954 13.92174565   457
GUOWANG OBJECT H        
1 69579U 26137H   26170.74245339 -.00000106  00000+0  31439-4 0  9999
2 69579  50.0006 245.2157 0010100 240.0569 119.9328 13.92227018   382
GUOWANG OBJECT J        
1 69580U 26137J   26170.74218633 -.00000104  00000+0  33282-4 0  9994
2 69580  49.9986 245.2101 0009514 236.3544 123.6448 13.92365581   388
CENTISPACE-1 GROUP 05 O*
1 69582U 26138A   26171.31911640 -.00000223  00000+0 -35394-4 0  9998
2 69582  55.1435 269.5905 0009938 284.4684  75.5188 14.15491215   463
CENTISPACE-1 GROUP 05 O*
1 69583U 26138B   26169.48293133 -.00000110  00000+0  22030-4 0  9991
2 69583  55.1443 276.3679 0009095 279.3206  80.6740 14.15750919   206
CENTISPACE-1 GROUP 05 O*
1 69584U 26138C   26169.48286078 -.00000107  00000+0  23745-4 0  9992
2 69584  55.1452 276.3744 0008531 279.2700  80.7310 14.15830371   207
CENTISPACE-1 GROUP 05 O*
1 69585U 26138D   26170.47112550  .00000022  00000+0  88501-4 0  9993
2 69585  55.1437 272.7109 0008280 282.4408  77.5640 14.15929535   344
CENTISPACE-1 GROUP 05 O*
1 69586U 26138E   26170.11805421  .00000122  00000+0  13903-3 0  9995
2 69586  55.1434 274.0220 0007969 282.0805  77.9276 14.15995160   291
CENTISPACE-1 GROUP 05 O*
1 69587U 26138F   26169.41211311 -.00000098  00000+0  28096-4 0  9999
2 69587  55.1465 276.6321 0008297 285.7708  74.2351 14.16000241   194
CENTISPACE-1 GROUP 05 O*
1 69588U 26138G   26169.48255398 -.00000095  00000+0  29348-4 0  9998
2 69588  55.1448 276.3650 0007050 279.9943  80.0236 14.16170753   205
SPACEMOBILE-008         
1 69589U 26139A   26171.24643490  .00000019  00000+0  18129-4 0  9991
2 69589  52.9945 248.6814 0003547 330.7256  29.3535 15.12496761   459
SPACEMOBILE-009         
1 69590U 26139B   26171.24610811 -.00000051  00000+0  14097-4 0  9991
2 69590  52.9926 248.6776 0003663 342.5170  17.5694 15.12665426   442
SPACEMOBILE-010         
1 69591U 26139C   26171.24590429  .00000045  00000+0  19487-4 0  9994
2 69591  52.9948 248.6791 0003488 349.3560  10.7357 15.12771938   444
